ONEWEB-0446             
1 51640U 22012U   25274.47149997  .00000700  00000+0  19676-2 0  9990
2 51640  87.8738  87.8759 0001861  93.9470 266.1870 13.10373616175443
ONEWEB-0448             
1 51641U 22012V   25274.40012003  .00000662  00000+0  18600-2 0  9994
2 51641  87.8738  87.8897 0001594  90.3117 269.8193 13.10372226175409
ONEWEB-0449             
1 51642U 22012W   25274.71053100  .00000662  00000+0  18590-2 0  9990
2 51642  87.8733  87.7979 0001829  75.4978 284.6352 13.10372197175459
ONEWEB-0451             
1 51643U 22012X   25274.79805199  .00000162  00000+0  38415-3 0  9996
2 51643  87.9084  57.2146 0001747  91.7714 268.3617 13.17649010179631
ONEWEB-0452             
1 51644U 22012Y   25274.79637544  .00000170  00000+0  40484-3 0  9992
2 51644  87.9074  57.2757 0001623  85.9501 274.1816 13.17649643179640
ONEWEB-0456             
1 51646U 22012AA  25274.72047723  .00000233  00000+0  63231-3 0  9996
2 51646  87.8744  87.7586 0001530  94.8396 265.2906 13.10370292175495
ONEWEB-0457             
1 51647U 22012AB  25274.46817737  .00000671  00000+0  18847-2 0  9996
2 51647  87.8740  87.8644 0002033  83.5156 276.6202 13.10375268175466
ONEWEB-0458             
1 51648U 22012AC  25274.71882573  .00000355  00000+0  98175-3 0  9997
2 51648  87.8731  87.7849 0001621  84.6647 275.4665 13.10370058175453
